<?xml version="1.0" encoding="UTF-8"?>
<ndm xmlns:xsi="http://www.w3.org/2001/XMLSchema-instance" xsi:noNamespaceSchemaLocation="https://sanaregistry.org/r/ndmxml_unqualified/ndmxml-2.0.0-master-2.0.xsd">
<omm id="CCSDS_OMM_VERS" version="2.0">
<header><CREATION_DATE/><ORIGINATOR/></header><body><segment><metadata><OBJECT_NAME>KUIPER-00095</OBJECT_NAME><OBJECT_ID>2025-171C</OBJECT_ID><CENTER_NAME>EARTH</CENTER_NAME><REF_FRAME>TEME</REF_FRAME><TIME_SYSTEM>UTC</TIME_SYSTEM><MEAN_ELEMENT_THEORY>SGP4</MEAN_ELEMENT_THEORY></metadata><data><meanElements><EPOCH>2025-09-30T02:41:30.791616</EPOCH><MEAN_MOTION>15.36485819</MEAN_MOTION><ECCENTRICITY>.0004033</ECCENTRICITY><INCLINATION>51.8756</INCLINATION><RA_OF_ASC_NODE>165.5541</RA_OF_ASC_NODE><ARG_OF_PERICENTER>333.1932</ARG_OF_PERICENTER><MEAN_ANOMALY>26.8846</MEAN_ANOMALY></meanElements><tleParameters><EPHEMERIS_TYPE>0</EPHEMERIS_TYPE><CLASSIFICATION_TYPE>U</CLASSIFICATION_TYPE><NORAD_CAT_ID>65134</NORAD_CAT_ID><ELEMENT_SET_NO>999</ELEMENT_SET_NO><REV_AT_EPOCH>887</REV_AT_EPOCH><BSTAR>.13742E-2</BSTAR><MEAN_MOTION_DOT>.49631E-3</MEAN_MOTION_DOT><MEAN_MOTION_DDOT>0</MEAN_MOTION_DDOT></tleParameters></data></segment></body></omm>
<omm id="CCSDS_OMM_VERS" version="2.0">
<header><CREATION_DATE/><ORIGINATOR/></header><body><segment><metadata><OBJECT_NAME>KUIPER-00096</OBJECT_NAME><OBJECT_ID>2025-171D</OBJECT_ID><CENTER_NAME>EARTH</CENTER_NAME><REF_FRAME>TEME</REF_FRAME><TIME_SYSTEM>UTC</TIME_SYSTEM><MEAN_ELEMENT_THEORY>SGP4</MEAN_ELEMENT_THEORY></metadata><data><meanElements><EPOCH>2025-09-29T21:47:29.415840</EPOCH><MEAN_MOTION>15.36916145</MEAN_MOTION><ECCENTRICITY>.0003907</ECCENTRICITY><INCLINATION>51.8753</INCLINATION><RA_OF_ASC_NODE>166.4363</RA_OF_ASC_NODE><ARG_OF_PERICENTER>305.3536</ARG_OF_PERICENTER><MEAN_ANOMALY>54.7085</MEAN_ANOMALY></meanElements><tleParameters><EPHEMERIS_TYPE>0</EPHEMERIS_TYPE><CLASSIFICATION_TYPE>U</CLASSIFICATION_TYPE><NORAD_CAT_ID>65135</NORAD_CAT_ID><ELEMENT_SET_NO>999</ELEMENT_SET_NO><REV_AT_EPOCH>884</REV_AT_EPOCH><BSTAR>.19431E-2</BSTAR><MEAN_MOTION_DOT>.71533E-3</MEAN_MOTION_DOT><MEAN_MOTION_DDOT>0</MEAN_MOTION_DDOT></tleParameters></data></segment></body></omm>
<omm id="CCSDS_OMM_VERS" version="2.0">
<header><CREATION_DATE/><ORIGINATOR/></header><body><segment><metadata><OBJECT_NAME>KUIPER-00097</OBJECT_NAME><OBJECT_ID>2025-171E</OBJECT_ID><CENTER_NAME>EARTH</CENTER_NAME><REF_FRAME>TEME</REF_FRAME><TIME_SYSTEM>UTC</TIME_SYSTEM><MEAN_ELEMENT_THEORY>SGP4</MEAN_ELEMENT_THEORY></metadata><data><meanElements><EPOCH>2025-09-30T02:43:16.044096</EPOCH><MEAN_MOTION>15.36566182</MEAN_MOTION><ECCENTRICITY>.0003826</ECCENTRICITY><INCLINATION>51.8752</INCLINATION><RA_OF_ASC_NODE>165.5607</RA_OF_ASC_NODE><ARG_OF_PERICENTER>324.4553</ARG_OF_PERICENTER><MEAN_ANOMALY>35.6178</MEAN_ANOMALY></meanElements><tleParameters><EPHEMERIS_TYPE>0</EPHEMERIS_TYPE><CLASSIFICATION_TYPE>U</CLASSIFICATION_TYPE><NORAD_CAT_ID>65136</NORAD_CAT_ID><ELEMENT_SET_NO>999</ELEMENT_SET_NO><REV_AT_EPOCH>886</REV_AT_EPOCH><BSTAR>.85481E-3</BSTAR><MEAN_MOTION_DOT>.30728E-3</MEAN_MOTION_DOT><MEAN_MOTION_DDOT>0</MEAN_MOTION_DDOT></tleParameters></data></segment></body></omm>
<omm id="CCSDS_OMM_VERS" version="2.0">
<header><CREATION_DATE/><ORIGINATOR/></header><body><segment><metadata><OBJECT_NAME>KUIPER-00098</OBJECT_NAME><OBJECT_ID>2025-171F</OBJECT_ID><CENTER_NAME>EARTH</CENTER_NAME><REF_FRAME>TEME</REF_FRAME><TIME_SYSTEM>UTC</TIME_SYSTEM><MEAN_ELEMENT_THEORY>SGP4</MEAN_ELEMENT_THEORY></metadata><data><meanElements><EPOCH>2025-09-30T02:14:11.999616</EPOCH><MEAN_MOTION>15.37315002</MEAN_MOTION><ECCENTRICITY>.0006304</ECCENTRICITY><INCLINATION>51.8754</INCLINATION><RA_OF_ASC_NODE>165.4371</RA_OF_ASC_NODE><ARG_OF_PERICENTER>351.9794</ARG_OF_PERICENTER><MEAN_ANOMALY>8.1090</MEAN_ANOMALY></meanElements><tleParameters><EPHEMERIS_TYPE>0</EPHEMERIS_TYPE><CLASSIFICATION_TYPE>U</CLASSIFICATION_TYPE><NORAD_CAT_ID>65137</NORAD_CAT_ID><ELEMENT_SET_NO>999</ELEMENT_SET_NO><REV_AT_EPOCH>821</REV_AT_EPOCH><BSTAR>.29043E-1</BSTAR><MEAN_MOTION_DOT>.1188025E-1</MEAN_MOTION_DOT><MEAN_MOTION_DDOT>0</MEAN_MOTION_DDOT></tleParameters></data></segment></body></omm>
<omm id="CCSDS_OMM_VERS" version="2.0">
<header><CREATION_DATE/><ORIGINATOR/></header><body><segment><metadata><OBJECT_NAME>KUIPER-00099</OBJECT_NAME><OBJECT_ID>2025-171G</OBJECT_ID><CENTER_NAME>EARTH</CENTER_NAME><REF_FRAME>TEME</REF_FRAME><TIME_SYSTEM>UTC</TIME_SYSTEM><MEAN_ELEMENT_THEORY>SGP4</MEAN_ELEMENT_THEORY></metadata><data><meanElements><EPOCH>2025-09-29T02:53:34.306944</EPOCH><MEAN_MOTION>15.37024791</MEAN_MOTION><ECCENTRICITY>.00046888</ECCENTRICITY><INCLINATION>51.8761</INCLINATION><RA_OF_ASC_NODE>170.1716</RA_OF_ASC_NODE><ARG_OF_PERICENTER>303.3654</ARG_OF_PERICENTER><MEAN_ANOMALY>56.6883</MEAN_ANOMALY></meanElements><tleParameters><EPHEMERIS_TYPE>0</EPHEMERIS_TYPE><CLASSIFICATION_TYPE>U</CLASSIFICATION_TYPE><NORAD_CAT_ID>65138</NORAD_CAT_ID><ELEMENT_SET_NO>999</ELEMENT_SET_NO><REV_AT_EPOCH>871</REV_AT_EPOCH><BSTAR>.15897051E-2</BSTAR><MEAN_MOTION_DOT>.58563E-3</MEAN_MOTION_DOT><MEAN_MOTION_DDOT>0</MEAN_MOTION_DDOT></tleParameters></data></segment></body></omm>
<omm id="CCSDS_OMM_VERS" version="2.0">
<header><CREATION_DATE/><ORIGINATOR/></header><body><segment><metadata><OBJECT_NAME>KUIPER-00100</OBJECT_NAME><OBJECT_ID>2025-171H</OBJECT_ID><CENTER_NAME>EARTH</CENTER_NAME><REF_FRAME>TEME</REF_FRAME><TIME_SYSTEM>UTC</TIME_SYSTEM><MEAN_ELEMENT_THEORY>SGP4</MEAN_ELEMENT_THEORY></metadata><data><meanElements><EPOCH>2025-09-29T23:20:33.912672</EPOCH><MEAN_MOTION>15.36858895</MEAN_MOTION><ECCENTRICITY>.000436</ECCENTRICITY><INCLINATION>51.8751</INCLINATION><RA_OF_ASC_NODE>166.1184</RA_OF_ASC_NODE><ARG_OF_PERICENTER>310.8571</ARG_OF_PERICENTER><MEAN_ANOMALY>49.2037</MEAN_ANOMALY></meanElements><tleParameters><EPHEMERIS_TYPE>0</EPHEMERIS_TYPE><CLASSIFICATION_TYPE>U</CLASSIFICATION_TYPE><NORAD_CAT_ID>65139</NORAD_CAT_ID><ELEMENT_SET_NO>999</ELEMENT_SET_NO><REV_AT_EPOCH>884</REV_AT_EPOCH><BSTAR>.19723E-2</BSTAR><MEAN_MOTION_DOT>.72492E-3</MEAN_MOTION_DOT><MEAN_MOTION_DDOT>0</MEAN_MOTION_DDOT></tleParameters></data></segment></body></omm>
<omm id="CCSDS_OMM_VERS" version="2.0">
<header><CREATION_DATE/><ORIGINATOR/></header><body><segment><metadata><OBJECT_NAME>KUIPER-00102</OBJECT_NAME><OBJECT_ID>2025-171J</OBJECT_ID><CENTER_NAME>EARTH</CENTER_NAME><REF_FRAME>TEME</REF_FRAME><TIME_SYSTEM>UTC</TIME_SYSTEM><MEAN_ELEMENT_THEORY>SGP4</MEAN_ELEMENT_THEORY></metadata><data><meanElements><EPOCH>2025-09-30T02:42:57.587328</EPOCH><MEAN_MOTION>15.36482066</MEAN_MOTION><ECCENTRICITY>.0004183</ECCENTRICITY><INCLINATION>51.8748</INCLINATION><RA_OF_ASC_NODE>165.5587</RA_OF_ASC_NODE><ARG_OF_PERICENTER>329.5579</ARG_OF_PERICENTER><MEAN_ANOMALY>30.5164</MEAN_ANOMALY></meanElements><tleParameters><EPHEMERIS_TYPE>0</EPHEMERIS_TYPE><CLASSIFICATION_TYPE>U</CLASSIFICATION_TYPE><NORAD_CAT_ID>65140</NORAD_CAT_ID><ELEMENT_SET_NO>999</ELEMENT_SET_NO><REV_AT_EPOCH>886</REV_AT_EPOCH><BSTAR>.17445E-2</BSTAR><MEAN_MOTION_DOT>.63218E-3</MEAN_MOTION_DOT><MEAN_MOTION_DDOT>0</MEAN_MOTION_DDOT></tleParameters></data></segment></body></omm>
<omm id="CCSDS_OMM_VERS" version="2.0">
<header><CREATION_DATE/><ORIGINATOR/></header><body><segment><metadata><OBJECT_NAME>KUIPER-00103</OBJECT_NAME><OBJECT_ID>2025-171K</OBJECT_ID><CENTER_NAME>EARTH</CENTER_NAME><REF_FRAME>TEME</REF_FRAME><TIME_SYSTEM>UTC</TIME_SYSTEM><MEAN_ELEMENT_THEORY>SGP4</MEAN_ELEMENT_THEORY></metadata><data><meanElements><EPOCH>2025-09-30T04:00:01.998720</EPOCH><MEAN_MOTION>15.22749478</MEAN_MOTION><ECCENTRICITY>.0004805</ECCENTRICITY><INCLINATION>51.8821</INCLINATION><RA_OF_ASC_NODE>165.8764</RA_OF_ASC_NODE><ARG_OF_PERICENTER>305.9590</ARG_OF_PERICENTER><MEAN_ANOMALY>76.0351</MEAN_ANOMALY></meanElements><tleParameters><EPHEMERIS_TYPE>0</EPHEMERIS_TYPE><CLASSIFICATION_TYPE>U</CLASSIFICATION_TYPE><NORAD_CAT_ID>65141</NORAD_CAT_ID><ELEMENT_SET_NO>999</ELEMENT_SET_NO><REV_AT_EPOCH>585</REV_AT_EPOCH><BSTAR>-.45172E-1</BSTAR><MEAN_MOTION_DOT>-.986068E-2</MEAN_MOTION_DOT><MEAN_MOTION_DDOT>0</MEAN_MOTION_DDOT></tleParameters></data></segment></body></omm>

</ndm>
