KUIPER-00095            
1 65134U 25171C   25273.11216194  .00049631  00000+0  13742-2 0  9990
2 65134  51.8756 165.5541 0004033 333.1932  26.8846 15.36485819  8871
KUIPER-00096            
1 65135U 25171D   25272.90797935  .00071533  00000+0  19431-2 0  9991
2 65135  51.8753 166.4363 0003907 305.3536  54.7085 15.36916145  8844
KUIPER-00097            
1 65136U 25171E   25273.11338014  .00030728  00000+0  85481-3 0  9995
2 65136  51.8752 165.5607 0003826 324.4553  35.6178 15.36566182  8861
KUIPER-00098            
1 65137U 25171F   25273.09319444  .01188025  00000+0  29043-1 0  9994
2 65137  51.8754 165.4371 0006304 351.9794   8.1090 15.37315002  8218
KUIPER-00099            
1 65138U 25171G   25272.12053596  .00058563  00000+0  15897-2 0  9996
2 65138  51.8761 170.1716 0004688 303.3654  56.6883 15.37024791  8717
KUIPER-00100            
1 65139U 25171H   25272.97261473  .00072492  00000+0  19723-2 0  9994
2 65139  51.8751 166.1184 0004360 310.8571  49.2037 15.36858895  8841
KUIPER-00102            
1 65140U 25171J   25273.11316652  .00063218  00000+0  17445-2 0  9998
2 65140  51.8748 165.5587 0004183 329.5579  30.5164 15.36482066  8866
KUIPER-00103            
1 65141U 25171K   25273.16668980 -.00986068  00000+0 -45172-1 0  9994
2 65141  51.8821 165.8764 0004805 305.9590  76.0351 15.22749478  5858
